{"type": "FeatureCollection", "features": [ {"type": "Feature", "properties": {"norad_id": 30960, "name": "FENGYUN 1C DEB", "group": "fengyun-1c-debris", "lat": -9.272605375686231, "lon": 117.98490237857784, "alt_km": 766.2792432526376, "timestamp": "2025-12-25T07:00:34.326686+00:00", "meta": {"OBJECT_NAME": "FENGYUN 1C DEB", "OBJECT_ID": "1999-025BBA", "EPOCH": "2025-12-24T01:35:23.867808", "MEAN_MOTION": 14.67096676, "ECCENTRICITY": 0.01959768, "INCLINATION": 99.0009, "RA_OF_ASC_NODE": 115.1562, "ARG_OF_PERICENTER": 127.0459, "MEAN_ANOMALY": 234.8846, "EPHEMERIS_TYPE": 0, "CLASSIFICATION_TYPE": "U", "NORAD_CAT_ID": 30960, "ELEMENT_SET_NO": 999, "REV_AT_EPOCH": 98864, "BSTAR": 0.0011626107, "MEAN_MOTION_DOT": 8.66e-05, "MEAN_MOTION_DDOT": 0}, "tle": {"line1": "1 30960U 99025BBA 25358.06624847  .00008660  00000+0  11626-2 0  9990", "line2": "2 30960  99.0009 115.1562 0195976 127.0459 234.8846 14.67096676988645"}}, "geometry": {"type": "Point", "coordinates": [117.98490237857784, -9.272605375686231]}}, {"type": "Feature", "properties": {"norad_id": 30967, "name": "FENGYUN 1C DEB", "group": "fengyun-1c-debris", "lat": 43.72526593530714, "lon": 134.65220381445152, "alt_km": 669.9015740160667, "timestamp": "2025-12-25T07:00:34.326696+00:00", "meta": {"OBJECT_NAME": "FENGYUN 1C DEB", "OBJECT_ID": "1999-025BBH", "EPOCH": "2025-12-24T07:18:43.118208", "MEAN_MOTION": 14.57213139, "ECCENTRICITY": 0.00950604, "INCLINATION": 98.7667, "RA_OF_ASC_NODE": 305.1256, "ARG_OF_PERICENTER": 203.934, "MEAN_ANOMALY": 155.7423, "EPHEMERIS_TYPE": 0, "CLASSIFICATION_TYPE": "U", "NORAD_CAT_ID": 30967, "ELEMENT_SET_NO": 999, "REV_AT_EPOCH": 99182, "BSTAR": 0.00068115675, "MEAN_MOTION_DOT": 3.217e-05, "MEAN_MOTION_DDOT": 0}, "tle": {"line1": "1 30967U 99025BBH 25358.30466572  .00003217  00000+0  68116-3 0  9993", "line2": "2 30967  98.7667 305.1256 0095060 203.9340 155.7423 14.57213139991825"}}, "geometry": {"type": "Point", "coordinates": [134.65220381445152, 43.72526593530714]}}, {"type": "Feature", "properties": {"norad_id": 30971, "name": "FENGYUN 1C DEB", "group": "fengyun-1c-debris", "lat": -76.03081040974706, "lon": 85.48957455398853, "alt_km": 732.5930871474857, "timestamp": "2025-12-25T07:00:34.326706+00:00", "meta": {"OBJECT_NAME": "FENGYUN 1C DEB", "OBJECT_ID": "1999-025BBM", "EPOCH": "2025-12-22T21:26:36.171744", "MEAN_MOTION": 14.71785418, "ECCENTRICITY": 0.0164056, "INCLINATION": 99.208, "RA_OF_ASC_NODE": 42.0759, "ARG_OF_PERICENTER": 159.8739, "MEAN_ANOMALY": 17.7567, "EPHEMERIS_TYPE": 0, "CLASSIFICATION_TYPE": "U", "NORAD_CAT_ID": 30971, "ELEMENT_SET_NO": 999, "REV_AT_EPOCH": 99866, "BSTAR": 0.00060198, "MEAN_MOTION_DOT": 4.575e-05, "MEAN_MOTION_DDOT": 0}, "tle": {"line1": "1 30971U 99025BBM 25356.89347421  .00004575  00000+0  60198-3 0  9991", "line2": "2 30971  99.2080  42.0759 0164056 159.8739  17.7567 14.71785418998668"}}, "geometry": {"type": "Point", "coordinates": [85.48957455398853, -76.03081040974706]}}, {"type": "Feature", "properties": {"norad_id": 30979, "name": "FENGYUN 1C DEB", "group": "fengyun-1c-debris", "lat": -63.24991761775631, "lon": -86.73938685279413, "alt_km": 650.0879255076879, "timestamp": "2025-12-25T07:00:34.326717+00:00", "meta": {"OBJECT_NAME": "FENGYUN 1C DEB", "OBJECT_ID": "1999-025BBV", "EPOCH": "2025-12-24T04:25:50.139840", "MEAN_MOTION": 14.78964413, "ECCENTRICITY": 0.01902725, "INCLINATION": 97.8304, "RA_OF_ASC_NODE": 256.3375, "ARG_OF_PERICENTER": 203.7725, "MEAN_ANOMALY": 316.9297, "EPHEMERIS_TYPE": 0, "CLASSIFICATION_TYPE": "U", "NORAD_CAT_ID": 30979, "ELEMENT_SET_NO": 999, "REV_AT_EPOCH": 99314, "BSTAR": 0.00092219156, "MEAN_MOTION_DOT": 9.195e-05, "MEAN_MOTION_DDOT": 0}, "tle": {"line1": "1 30979U 99025BBV 25358.18460810  .00009195  00000+0  92219-3 0  9993", "line2": "2 30979  97.8304 256.3375 0190272 203.7725 316.9297 14.78964413993149"}}, "geometry": {"type": "Point", "coordinates": [-86.73938685279413, -63.24991761775631]}}, {"type": "Feature", "properties": {"norad_id": 30982, "name": "FENGYUN 1C DEB", "group": "fengyun-1c-debris", "lat": -27.40054894542385, "lon": -6.460158030203266, "alt_km": 659.9307590598219, "timestamp": "2025-12-25T07:00:34.326728+00:00", "meta": {"OBJECT_NAME": "FENGYUN 1C DEB", "OBJECT_ID": "1999-025BBY", "EPOCH": "2025-12-23T05:32:45.239424", "MEAN_MOTION": 14.50982997, "ECCENTRICITY": 0.01799715, "INCLINATION": 98.2177, "RA_OF_ASC_NODE": 347.2294, "ARG_OF_PERICENTER": 280.1349, "MEAN_ANOMALY": 91.1992, "EPHEMERIS_TYPE": 0, "CLASSIFICATION_TYPE": "U", "NORAD_CAT_ID": 30982, "ELEMENT_SET_NO": 999, "REV_AT_EPOCH": 71206, "BSTAR": 0.00028310566, "MEAN_MOTION_DOT": 1.325e-05, "MEAN_MOTION_DDOT": 0}, "tle": {"line1": "1 30982U 99025BBY 25357.23107916  .00001325  00000+0  28311-3 0  9996", "line2": "2 30982  98.2177 347.2294 0179971 280.1349  91.1992 14.50982997712061"}}, "geometry": {"type": "Point", "coordinates": [-6.460158030203266, -27.40054894542385]}}, {"type": "Feature", "properties": {"norad_id": 30984, "name": "FENGYUN 1C DEB", "group": "fengyun-1c-debris", "lat": -4.861005296507925, "lon": -145.3097123145333, "alt_km": 800.5248927794282, "timestamp": "2025-12-25T07:00:34.326738+00:00", "meta": {"OBJECT_NAME": "FENGYUN 1C DEB", "OBJECT_ID": "1999-025BCA", "EPOCH": "2025-12-24T20:13:11.120448", "MEAN_MOTION": 14.50506483, "ECCENTRICITY": 0.01265443, "INCLINATION": 98.2609, "RA_OF_ASC_NODE": 34.957, "ARG_OF_PERICENTER": 330.8496, "MEAN_ANOMALY": 28.5675, "EPHEMERIS_TYPE": 0, "CLASSIFICATION_TYPE": "U", "NORAD_CAT_ID": 30984, "ELEMENT_SET_NO": 999, "REV_AT_EPOCH": 95339, "BSTAR": 0.00081502101, "MEAN_MOTION_DOT": 3.487e-05, "MEAN_MOTION_DDOT": 0}, "tle": {"line1": "1 30984U 99025BCA 25358.84248982  .00003487  00000+0  81502-3 0  9997", "line2": "2 30984  98.2609  34.9570 0126544 330.8496  28.5675 14.50506483953391"}}, "geometry": {"type": "Point", "coordinates": [-145.3097123145333, -4.861005296507925]}}, {"type": "Feature", "properties": {"norad_id": 30988, "name": "FENGYUN 1C DEB", "group": "fengyun-1c-debris", "lat": 0.285391847334342, "lon": -51.58236276358195, "alt_km": 452.4150824211856, "timestamp": "2025-12-25T07:00:34.326748+00:00", "meta": {"OBJECT_NAME": "FENGYUN 1C DEB", "OBJECT_ID": "1999-025BCE", "EPOCH": "2025-12-24T07:25:39.389952", "MEAN_MOTION": 15.27554396, "ECCENTRICITY": 0.01086712, "INCLINATION": 98.5426, "RA_OF_ASC_NODE": 307.3357, "ARG_OF_PERICENTER": 299.8521, "MEAN_ANOMALY": 59.1949, "EPHEMERIS_TYPE": 0, "CLASSIFICATION_TYPE": "U", "NORAD_CAT_ID": 30988, "ELEMENT_SET_NO": 999, "REV_AT_EPOCH": 99740, "BSTAR": 0.0020069634, "MEAN_MOTION_DOT": 0.00064814, "MEAN_MOTION_DDOT": 0}, "tle": {"line1": "1 30988U 99025BCE 25358.30948368  .00064814  00000+0  20070-2 0  9990", "line2": "2 30988  98.5426 307.3357 0108671 299.8521  59.1949 15.27554396997404"}}, "geometry": {"type": "Point", "coordinates": [-51.58236276358195, 0.285391847334342]}}, {"type": "Feature", "properties": {"norad_id": 30989, "name": "FENGYUN 1C DEB", "group": "fengyun-1c-debris", "lat": 75.9450534691611, "lon": 33.46715751746522, "alt_km": 775.6759613634295, "timestamp": "2025-12-25T07:00:34.326759+00:00", "meta": {"OBJECT_NAME": "FENGYUN 1C DEB", "OBJECT_ID": "1999-025BCF", "EPOCH": "2025-12-24T03:28:11.682624", "MEAN_MOTION": 14.13992864, "ECCENTRICITY": 0.00898899, "INCLINATION": 99.0518, "RA_OF_ASC_NODE": 71.8564, "ARG_OF_PERICENTER": 67.6249, "MEAN_ANOMALY": 293.4418, "EPHEMERIS_TYPE": 0, "CLASSIFICATION_TYPE": "U", "NORAD_CAT_ID": 30989, "ELEMENT_SET_NO": 999, "REV_AT_EPOCH": 96149, "BSTAR": 0.0014579966, "MEAN_MOTION_DOT": 2.834e-05, "MEAN_MOTION_DDOT": 0}, "tle": {"line1": "1 30989U 99025BCF 25358.14457966  .00002834  00000+0  14580-2 0  9995", "line2": "2 30989  99.0518  71.8564 0089889  67.6249 293.4418 14.13992864961497"}}, "geometry": {"type": "Point", "coordinates": [33.46715751746522, 75.9450534691611]}}, {"type": "Feature", "properties": {"norad_id": 30993, "name": "FENGYUN 1C DEB", "group": "fengyun-1c-debris", "lat": -80.53104426223513, "lon": -156.97154434309226, "alt_km": 776.0896415651832, "timestamp": "2025-12-25T07:00:34.326769+00:00", "meta": {"OBJECT_NAME": "FENGYUN 1C DEB", "OBJECT_ID": "1999-025BCK", "EPOCH": "2025-12-24T17:06:43.121376", "MEAN_MOTION": 14.35536379, "ECCENTRICITY": 0.00162608, "INCLINATION": 98.8459, "RA_OF_ASC_NODE": 91.4554, "ARG_OF_PERICENTER": 335.6534, "MEAN_ANOMALY": 180.2644, "EPHEMERIS_TYPE": 0, "CLASSIFICATION_TYPE": "U", "NORAD_CAT_ID": 30993, "ELEMENT_SET_NO": 999, "REV_AT_EPOCH": 97091, "BSTAR": 0.0018029953, "MEAN_MOTION_DOT": 5.155e-05, "MEAN_MOTION_DDOT": 0}, "tle": {"line1": "1 30993U 99025BCK 25358.71299909  .00005155  00000+0  18030-2 0  9997", "line2": "2 30993  98.8459  91.4554 0016260 335.6534 180.2644 14.35536379970918"}}, "geometry": {"type": "Point", "coordinates": [-156.97154434309226, -80.53104426223513]}}, {"type": "Feature", "properties": {"norad_id": 30994, "name": "FENGYUN 1C DEB", "group": "fengyun-1c-debris", "lat": -44.90558375305484, "lon": 16.135435459526818, "alt_km": 873.2174720093344, "timestamp": "2025-12-25T07:00:34.326779+00:00", "meta": {"OBJECT_NAME": "FENGYUN 1C DEB", "OBJECT_ID": "1999-025BCL", "EPOCH": "2025-12-24T15:55:02.271072", "MEAN_MOTION": 14.11777442, "ECCENTRICITY": 0.00183968, "INCLINATION": 98.6996, "RA_OF_ASC_NODE": 6.7476, "ARG_OF_PERICENTER": 141.4604, "MEAN_ANOMALY": 218.7885, "EPHEMERIS_TYPE": 0, "CLASSIFICATION_TYPE": "U", "NORAD_CAT_ID": 30994, "ELEMENT_SET_NO": 999, "REV_AT_EPOCH": 96753, "BSTAR": 0.00015647434, "MEAN_MOTION_DOT": 2.43e-06, "MEAN_MOTION_DDOT": 0}, "tle": {"line1": "1 30994U 99025BCL 25358.66322073  .00000243  00000+0  15647-3 0  9996", "line2": "2 30994  98.6996   6.7476 0018396 141.4604 218.7885 14.11777442967538"}}, "geometry": {"type": "Point", "coordinates": [16.135435459526818, -44.90558375305484]}}]}